OOV-CUBE (TUBSAT-30)    
1 60240U 24128F   26063.43761512  .00005371  00000+0  40817-3 0  9993
2 60240  61.9938 230.6838 0054961 111.3065 249.3906 15.02202769 90378
